{"type":"FeatureCollection","features":[{"type":"Feature","properties":{"mode":"bus","n":16,"arr":["3","8","10","15","17a","17b","25","29","30","31","31B","32a","32b","33","35","38"],"lines":"3, 8, 10, 15, 17a, 17b, 25, 29, 30, 31, 31B, 32a, 32b, 33, 35, 38"},"geometry":{"type":"LineString","coordinates":[[19.411885,50.142736],[19.411906,50.142722],[19.411914,50.142713],[19.411914,50.142704],[19.411864,50.142561]]}},{"type":"Feature","properties":{"mode":"bus","n":16,"arr":["3","8","10","15","17a","17b","25","29","30","31","31B","32a","32b","33","35","38"],"lines":"3, 8, 10, 15, 17a, 17b, 25, 29, 30, 31, 31B, 32a, 32b, 33, 35, 38"},"geometry":{"type":"LineString","coordinates":[[19.409941,50.141926],[19.410017,50.141931],[19.410054,50.141939],[19.410083,50.141955],[19.410144,50.142008],[19.410953,50.142266]]}},{"type":"Feature","properties":{"mode":"bus","n":14,"arr":["3","8","9","15","17a","17b","25","30","31","31B","32a","32b","35","38"],"lines":"3, 8, 9, 15, 17a, 17b, 25, 30, 31, 31B, 32a, 32b, 35, 38"},"geometry":{"type":"LineString","coordinates":[[19.41186,50.142795],[19.411911,50.142848],[19.411933,50.142862],[19.411962,50.142869],[19.412024,50.142876],[19.412114,50.142839],[19.412139,50.14278],[19.412,50.142623],[19.411864,50.142561]]}},{"type":"Feature","properties":{"mode":"bus","n":14,"arr":["3","8","9","15","17a","17b","25","30","31","31B","32a","32b","35","38"],"lines":"3, 8, 9, 15, 17a, 17b, 25, 30, 31, 31B, 32a, 32b, 35, 38"},"geometry":{"type":"LineString","coordinates":[[19.410953,50.142266],[19.41091,50.1418],[19.410914,50.141779],[19.410931,50.141764],[19.410961,50.141754],[19.411358,50.141682],[19.411663,50.141585]]}},{"type":"Feature","properties":{"mode":"bus","n":16,"arr":["3","8","9","15","17a","17b","25","29","30","31","31B","32a","32b","33","35","38"],"lines":"3, 8, 9, 15, 17a, 17b, 25, 29, 30, 31, 31B, 32a, 32b, 33, 35, 38"},"geometry":{"type":"LineString","coordinates":[[19.41186,50.142795],[19.411885,50.142736]]}},{"type":"Feature","properties":{"mode":"bus","n":5,"arr":["8","17a","17b","35","38"],"lines":"8, 17a, 17b, 35, 38"},"geometry":{"type":"LineString","coordinates":[[19.410907,50.141764],[19.410593,50.141808],[19.410198,50.141806],[19.410059,50.141749],[19.409995,50.14175],[19.409963,50.141755],[19.409937,50.141768],[19.409889,50.141804],[19.409873,50.141821],[19.409871,50.141841],[19.409877,50.141881],[19.409941,50.141926]]}},{"type":"Feature","properties":{"mode":"bus","n":12,"arr":["3","8","9","15","25","29","30","31","32a","32b","33","38"],"lines":"3, 8, 9, 15, 25, 29, 30, 31, 32a, 32b, 33, 38"},"geometry":{"type":"LineString","coordinates":[[19.403767,50.143871],[19.402093,50.144212],[19.401791,50.144251],[19.401204,50.144265],[19.400442,50.144234],[19.399489,50.144115],[19.399388,50.144122],[19.399228,50.144202]]}},{"type":"Feature","properties":{"mode":"bus","n":12,"arr":["3","8","9","15","25","29","30","31","32a","32b","33","38"],"lines":"3, 8, 9, 15, 25, 29, 30, 31, 32a, 32b, 33, 38"},"geometry":{"type":"LineString","coordinates":[[19.405851,50.144147],[19.405678,50.14407],[19.405035,50.143921],[19.404439,50.143748]]}},{"type":"Feature","properties":{"mode":"bus","n":11,"arr":["3","8","9","15","25","30","31","32a","32b","33","38"],"lines":"3, 8, 9, 15, 25, 30, 31, 32a, 32b, 33, 38"},"geometry":{"type":"LineString","coordinates":[[19.399228,50.144202],[19.399007,50.144204],[19.39887,50.144147]]}},{"type":"Feature","properties":{"mode":"bus","n":11,"arr":["3","8","9","15","25","30","31","32a","32b","33","38"],"lines":"3, 8, 9, 15, 25, 30, 31, 32a, 32b, 33, 38"},"geometry":{"type":"LineString","coordinates":[[19.398784,50.143975],[19.398836,50.143885],[19.398911,50.143833]]}},{"type":"Feature","properties":{"mode":"bus","n":10,"arr":["3","8","9","15","25","30","31","32a","32b","38"],"lines":"3, 8, 9, 15, 25, 30, 31, 32a, 32b, 38"},"geometry":{"type":"LineString","coordinates":[[19.39887,50.144147],[19.398803,50.144079],[19.398784,50.143975]]}},{"type":"Feature","properties":{"mode":"bus","n":10,"arr":["3","8","9","15","25","30","31","32a","32b","38"],"lines":"3, 8, 9, 15, 25, 30, 31, 32a, 32b, 38"},"geometry":{"type":"LineString","coordinates":[[19.398911,50.143833],[19.398573,50.143263],[19.398073,50.142567],[19.397461,50.141728],[19.396206,50.140124],[19.395993,50.139887],[19.395849,50.13977],[19.395279,50.139439],[19.395263,50.139427],[19.395257,50.139415],[19.395261,50.139402],[19.395276,50.139389],[19.395802,50.139034],[19.396439,50.138812],[19.396753,50.138614],[19.396899,50.138474],[19.39703,50.138291],[19.397104,50.138104],[19.397104,50.137694],[19.397241,50.137528],[19.398313,50.137266],[19.398757,50.137092],[19.399661,50.136678],[19.400915,50.136148],[19.401418,50.135833],[19.402118,50.135445]]}},{"type":"Feature","properties":{"mode":"bus","n":5,"arr":["8","15","25","38","B"],"lines":"8, 15, 25, 38, B"},"geometry":{"type":"LineString","coordinates":[[19.32994,50.1066],[19.329932,50.10665],[19.329921,50.106674],[19.329894,50.106693],[19.329829,50.106723],[19.329791,50.106734],[19.32975,50.106734],[19.329669,50.106722],[19.32962,50.106675],[19.329603,50.106648],[19.329604,50.106619],[19.329624,50.106561],[19.329714,50.106519],[19.329808,50.106215]]}},{"type":"Feature","properties":{"mode":"bus","n":6,"arr":["8","15","25","38","A","B"],"lines":"8, 15, 25, 38, A, B"},"geometry":{"type":"LineString","coordinates":[[19.32927,50.096219],[19.329627,50.096287],[19.329656,50.096296],[19.32967,50.096312],[19.329671,50.096332],[19.329231,50.097817],[19.329163,50.098146],[19.329192,50.098306],[19.329661,50.099413],[19.329813,50.0999],[19.329997,50.100796],[19.330094,50.101552],[19.330057,50.101716],[19.32975,50.102114],[19.329715,50.102281],[19.330027,50.105017],[19.329942,50.105615],[19.329808,50.106215],[19.329807,50.106486],[19.329816,50.106513],[19.329845,50.106533],[19.329915,50.106564],[19.329993,50.106678],[19.330091,50.106743],[19.330117,50.106755],[19.330145,50.106756],[19.330172,50.106745],[19.330281,50.106685],[19.330304,50.106591],[19.33023,50.106468],[19.330124,50.106412],[19.330044,50.106407],[19.330028,50.106408],[19.330015,50.106414],[19.329994,50.106429],[19.329915,50.106564]]}},{"type":"Feature","properties":{"mode":"bus","n":5,"arr":["8","15","25","A","B"],"lines":"8, 15, 25, A, B"},"geometry":{"type":"LineString","coordinates":[[19.31517,50.103612],[19.315221,50.103651],[19.315353,50.103687],[19.315951,50.103728],[19.316063,50.103763],[19.31609,50.103777],[19.316105,50.103798],[19.316119,50.103843]]}},{"type":"Feature","properties":{"mode":"bus","n":5,"arr":["8","15","25","A","B"],"lines":"8, 15, 25, A, B"},"geometry":{"type":"LineString","coordinates":[[19.316335,50.103636],[19.316151,50.103683],[19.31517,50.103612],[19.314175,50.103306],[19.313818,50.103152],[19.313216,50.102789],[19.310756,50.100782],[19.31034,50.10056],[19.310142,50.100488],[19.307965,50.099877],[19.307459,50.09966],[19.307008,50.099346],[19.306358,50.098785],[19.30583,50.098378],[19.303974,50.097173]]}},{"type":"Feature","properties":{"mode":"bus","n":5,"arr":["8","15","25","A","B"],"lines":"8, 15, 25, A, B"},"geometry":{"type":"LineString","coordinates":[[19.3299,50.101916],[19.328689,50.101501],[19.326716,50.101194],[19.325708,50.100947],[19.325008,50.100716],[19.323957,50.100316],[19.322437,50.099822]]}},{"type":"Feature","properties":{"mode":"bus","n":5,"arr":["8","15","25","A","B"],"lines":"8, 15, 25, A, B"},"geometry":{"type":"LineString","coordinates":[[19.313075,50.102674],[19.313279,50.1027],[19.313482,50.102839],[19.313524,50.102987]]}},{"type":"Feature","properties":{"mode":"bus","n":8,"arr":["9","10","15","41","42","La","Lb","Lc"],"lines":"9, 10, 15, 41, 42, La, Lb, Lc"},"geometry":{"type":"LineString","coordinates":[[19.460542,50.157519],[19.460251,50.157477],[19.460131,50.157489],[19.46008,50.157487],[19.460035,50.157471],[19.45966,50.157247]]}},{"type":"Feature","properties":{"mode":"bus","n":8,"arr":["9","10","15","41","42","La","Lb","Lc"],"lines":"9, 10, 15, 41, 42, La, Lb, Lc"},"geometry":{"type":"LineString","coordinates":[[19.456748,50.156354],[19.456346,50.156282],[19.456209,50.156316],[19.456095,50.156295],[19.456024,50.156247],[19.456008,50.156199],[19.455992,50.156176],[19.455962,50.156161],[19.455019,50.155842],[19.454916,50.155784]]}},{"type":"Feature","properties":{"mode":"bus","n":8,"arr":["9","10","15","41","42","La","Lb","Lc"],"lines":"9, 10, 15, 41, 42, La, Lb, Lc"},"geometry":{"type":"LineString","coordinates":[[19.454171,50.155333],[19.454478,50.15542],[19.454552,50.155479]]}},{"type":"Feature","properties":{"mode":"bus","n":9,"arr":["9","10","15","41","42","La","Lb","Lc","N"],"lines":"9, 10, 15, 41, 42, La, Lb, Lc, N"},"geometry":{"type":"LineString","coordinates":[[19.466933,50.159265],[19.466587,50.159269],[19.466311,50.15924],[19.465767,50.159116],[19.460542,50.157519],[19.460327,50.157403],[19.460313,50.157324],[19.460227,50.157266],[19.460116,50.157252],[19.459992,50.157293],[19.45966,50.157247],[19.456748,50.156354],[19.456457,50.156232],[19.456419,50.156208],[19.4564,50.156177],[19.456382,50.15611],[19.456302,50.156064],[19.456186,50.15605],[19.456098,50.156079],[19.456049,50.156088],[19.455999,50.156084],[19.455877,50.156059],[19.455051,50.155799],[19.454916,50.155784],[19.454486,50.155653],[19.45446,50.155641],[19.454451,50.155625],[19.454459,50.155605],[19.454569,50.155452],[19.454566,50.155333],[19.454503,50.155257],[19.45399,50.154845],[19.453972,50.154834],[19.453954,50.15483],[19.453935,50.154833],[19.453916,50.154843],[19.453794,50.154922],[19.453637,50.155066],[19.453626,50.155081],[19.453625,50.155094],[19.453633,50.155105],[19.453652,50.155116],[19.454171,50.155333]]}},{"type":"Feature","properties":{"mode":"bus","n":7,"arr":["17a","31","32b","38","41","42","P"],"lines":"17a, 31, 32b, 38, 41, 42, P"},"geometry":{"type":"LineString","coordinates":[[19.422809,50.135886],[19.422885,50.135946],[19.423352,50.136077]]}},{"type":"Feature","properties":{"mode":"bus","n":7,"arr":["17a","31","31B","32b","38","42","P"],"lines":"17a, 31, 31B, 32b, 38, 42, P"},"geometry":{"type":"LineString","coordinates":[[19.423352,50.136077],[19.42296,50.136052],[19.422872,50.136063],[19.422751,50.136114],[19.422636,50.13611],[19.422324,50.136264]]}},{"type":"Feature","properties":{"mode":"bus","n":7,"arr":["17a","31","31B","32b","38","42","P"],"lines":"17a, 31, 31B, 32b, 38, 42, P"},"geometry":{"type":"LineString","coordinates":[[19.426619,50.137526],[19.426075,50.137328],[19.42593,50.137218]]}},{"type":"Feature","properties":{"mode":"bus","n":6,"arr":["17a","17b","38","41","42","P"],"lines":"17a, 17b, 38, 41, 42, P"},"geometry":{"type":"LineString","coordinates":[[19.422585,50.135891],[19.422515,50.135955],[19.422529,50.136051],[19.422324,50.136264]]}},{"type":"Feature","properties":{"mode":"bus","n":8,"arr":["17a","17b","31","32b","38","41","42","P"],"lines":"17a, 17b, 31, 32b, 38, 41, 42, P"},"geometry":{"type":"LineString","coordinates":[[19.422671,50.135868],[19.422585,50.135891]]}},{"type":"Feature","properties":{"mode":"bus","n":6,"arr":["17a","31","32b","38","41","42"],"lines":"17a, 31, 32b, 38, 41, 42"},"geometry":{"type":"LineString","coordinates":[[19.422671,50.135868],[19.422809,50.135886]]}},{"type":"Feature","properties":{"mode":"bus","n":5,"arr":["17b","30","31","32a","35"],"lines":"17b, 30, 31, 32a, 35"},"geometry":{"type":"LineString","coordinates":[[19.410728,50.127328],[19.410759,50.127362],[19.410738,50.127445],[19.41064,50.127493],[19.410481,50.127654]]}},{"type":"Feature","properties":{"mode":"bus","n":5,"arr":["30","31","32a","32b","35"],"lines":"30, 31, 32a, 32b, 35"},"geometry":{"type":"LineString","coordinates":[[19.410515,50.127298],[19.410632,50.127288]]}},{"type":"Feature","properties":{"mode":"bus","n":9,"arr":["3","8","9","15","25","30","32a","32b","38"],"lines":"3, 8, 9, 15, 25, 30, 32a, 32b, 38"},"geometry":{"type":"LineString","coordinates":[[19.406707,50.138414],[19.403237,50.136195],[19.402118,50.135445]]}},{"type":"Feature","properties":{"mode":"bus","n":10,"arr":["3","8","9","15","17b","25","30","32a","35","38"],"lines":"3, 8, 9, 15, 17b, 25, 30, 32a, 35, 38"},"geometry":{"type":"LineString","coordinates":[[19.411663,50.141585],[19.411507,50.141475],[19.410747,50.141084],[19.406707,50.138414]]}},{"type":"Feature","properties":{"mode":"bus","n":17,"arr":["3","8","9","10","15","17a","17b","25","29","30","31","31B","32a","32b","33","35","38"],"lines":"3, 8, 9, 10, 15, 17a, 17b, 25, 29, 30, 31, 31B, 32a, 32b, 33, 35, 38"},"geometry":{"type":"LineString","coordinates":[[19.411864,50.142561],[19.410953,50.142266]]}},{"type":"Feature","properties":{"mode":"bus","n":17,"arr":["3","8","9","10","15","17a","17b","25","29","30","31","31B","32a","32b","33","35","38"],"lines":"3, 8, 9, 10, 15, 17a, 17b, 25, 29, 30, 31, 31B, 32a, 32b, 33, 35, 38"},"geometry":{"type":"LineString","coordinates":[[19.411771,50.142715],[19.411885,50.142736]]}},{"type":"Feature","properties":{"mode":"bus","n":12,"arr":["3","17a","17b","29","30","31","31B","32a","32b","33","35","38"],"lines":"3, 17a, 17b, 29, 30, 31, 31B, 32a, 32b, 33, 35, 38"},"geometry":{"type":"LineString","coordinates":[[19.411538,50.142649],[19.411771,50.142715]]}},{"type":"Feature","properties":{"mode":"bus","n":13,"arr":["3","8","10","15","25","29","30","31","31B","32a","32b","33","38"],"lines":"3, 8, 10, 15, 25, 29, 30, 31, 31B, 32a, 32b, 33, 38"},"geometry":{"type":"LineString","coordinates":[[19.404439,50.143748],[19.405028,50.143639],[19.405182,50.143582],[19.405881,50.1432],[19.406858,50.142874],[19.406907,50.142775],[19.406896,50.14254],[19.406924,50.142479],[19.406965,50.142434],[19.407088,50.142378],[19.409941,50.141926]]}},{"type":"Feature","properties":{"mode":"bus","n":13,"arr":["3","8","10","15","25","29","30","31","31B","32a","32b","33","38"],"lines":"3, 8, 10, 15, 25, 29, 30, 31, 31B, 32a, 32b, 33, 38"},"geometry":{"type":"LineString","coordinates":[[19.40488,50.144124],[19.403968,50.144198],[19.403935,50.144197],[19.403911,50.144187],[19.403897,50.144168],[19.403767,50.143871]]}},{"type":"Feature","properties":{"mode":"bus","n":14,"arr":["3","8","9","10","15","25","29","30","31","31B","32a","32b","33","38"],"lines":"3, 8, 9, 10, 15, 25, 29, 30, 31, 31B, 32a, 32b, 33, 38"},"geometry":{"type":"LineString","coordinates":[[19.404439,50.143748],[19.403767,50.143871]]}},{"type":"Feature","properties":{"mode":"bus","n":12,"arr":["3","8","10","15","25","29","30","31","32a","32b","33","38"],"lines":"3, 8, 10, 15, 25, 29, 30, 31, 32a, 32b, 33, 38"},"geometry":{"type":"LineString","coordinates":[[19.405851,50.144147],[19.40488,50.144124]]}},{"type":"Feature","properties":{"mode":"bus","n":8,"arr":["9","10","41","42","La","Lb","Lc","N"],"lines":"9, 10, 41, 42, La, Lb, Lc, N"},"geometry":{"type":"LineString","coordinates":[[19.466933,50.159265],[19.466881,50.159434],[19.466654,50.159666]]}},{"type":"Feature","properties":{"mode":"bus","n":7,"arr":["9","10","41","42","La","Lb","Lc"],"lines":"9, 10, 41, 42, La, Lb, Lc"},"geometry":{"type":"LineString","coordinates":[[19.466765,50.159558],[19.46673,50.159274]]}},{"type":"Feature","properties":{"mode":"bus","n":5,"arr":["9","15","41","42","P"],"lines":"9, 15, 41, 42, P"},"geometry":{"type":"LineString","coordinates":[[19.415215,50.14358],[19.413728,50.143116],[19.413364,50.142969],[19.413143,50.14285],[19.412874,50.142664],[19.411829,50.141703],[19.411663,50.141585]]}},{"type":"Feature","properties":{"mode":"bus","n":6,"arr":["10","15","41","42","Lb","Lc"],"lines":"10, 15, 41, 42, Lb, Lc"},"geometry":{"type":"LineString","coordinates":[[19.469348,50.158476],[19.467683,50.159109],[19.467376,50.159195],[19.466933,50.159265]]}},{"type":"Feature","properties":{"mode":"bus","n":6,"arr":["10","41","42","Lb","Lc","N"],"lines":"10, 41, 42, Lb, Lc, N"},"geometry":{"type":"LineString","coordinates":[[19.469348,50.158476],[19.470429,50.159553],[19.470971,50.160021],[19.471188,50.16032],[19.471509,50.161022],[19.471797,50.161754],[19.47168,50.163771],[19.471672,50.164045],[19.471719,50.164372],[19.471819,50.16453],[19.471956,50.164666],[19.472334,50.164958],[19.472584,50.165188],[19.47298,50.166116]]}},{"type":"Feature","properties":{"mode":"bus","n":6,"arr":["10","41","42","La","Lb","Lc"],"lines":"10, 41, 42, La, Lb, Lc"},"geometry":{"type":"LineString","coordinates":[[19.473092,50.166376],[19.473198,50.166721],[19.473176,50.167003],[19.472595,50.168281],[19.472545,50.168587],[19.472708,50.169953],[19.472918,50.171162],[19.473137,50.172753]]}},{"type":"Feature","properties":{"mode":"bus","n":7,"arr":["10","41","42","La","Lb","Lc","N"],"lines":"10, 41, 42, La, Lb, Lc, N"},"geometry":{"type":"LineString","coordinates":[[19.47298,50.166116],[19.473092,50.166376]]}},{"type":"Feature","properties":{"mode":"bus","n":7,"arr":["10","15","41","42","La","Lb","Lc"],"lines":"10, 15, 41, 42, La, Lb, Lc"},"geometry":{"type":"LineString","coordinates":[[19.473137,50.172753],[19.473278,50.1738]]}},{"type":"Feature","properties":{"mode":"bus","n":6,"arr":["15","41","42","Lb","Lc","N"],"lines":"15, 41, 42, Lb, Lc, N"},"geometry":{"type":"LineString","coordinates":[[19.47957,50.184342],[19.479878,50.184486],[19.4804,50.184645],[19.482283,50.184946],[19.482892,50.185009],[19.483546,50.185047],[19.484917,50.185084]]}},{"type":"Feature","properties":{"mode":"bus","n":6,"arr":["15","41","42","La","Lb","Lc"],"lines":"15, 41, 42, La, Lb, Lc"},"geometry":{"type":"LineString","coordinates":[[19.473278,50.1738],[19.473626,50.176482],[19.473737,50.176657],[19.474187,50.177084],[19.47433,50.177263],[19.474835,50.178106],[19.474902,50.178376],[19.475032,50.179385],[19.475094,50.17961],[19.475585,50.180696],[19.475759,50.181305],[19.476231,50.181978],[19.476875,50.183675],[19.476972,50.183776],[19.477128,50.183846],[19.477643,50.183949],[19.479178,50.184188],[19.47957,50.184342]]}},{"type":"Feature","properties":{"mode":"bus","n":8,"arr":["17a","31","31B","32b","38","41","42","P"],"lines":"17a, 31, 31B, 32b, 38, 41, 42, P"},"geometry":{"type":"LineString","coordinates":[[19.42593,50.137218],[19.424158,50.13632],[19.423793,50.136186],[19.423352,50.136077]]}},{"type":"Feature","properties":{"mode":"bus","n":8,"arr":["17a","31","31B","32b","38","41","42","P"],"lines":"17a, 31, 31B, 32b, 38, 41, 42, P"},"geometry":{"type":"LineString","coordinates":[[19.42717,50.137784],[19.426619,50.137526]]}},{"type":"Feature","properties":{"mode":"bus","n":6,"arr":["17a","31","32b","41","42","P"],"lines":"17a, 31, 32b, 41, 42, P"},"geometry":{"type":"LineString","coordinates":[[19.423793,50.136186],[19.423859,50.136122]]}},{"type":"Feature","properties":{"mode":"bus","n":6,"arr":["17a","31","32b","38","41","P"],"lines":"17a, 31, 32b, 38, 41, P"},"geometry":{"type":"LineString","coordinates":[[19.426619,50.137526],[19.426147,50.137263],[19.42593,50.137218]]}},{"type":"Feature","properties":{"mode":"bus","n":6,"arr":["17a","31B","32b","41","42","P"],"lines":"17a, 31B, 32b, 41, 42, P"},"geometry":{"type":"LineString","coordinates":[[19.427322,50.137857],[19.42717,50.137784]]}},{"type":"Feature","properties":{"mode":"bus","n":9,"arr":["17a","17b","31","31B","32b","38","41","42","P"],"lines":"17a, 17b, 31, 31B, 32b, 38, 41, 42, P"},"geometry":{"type":"LineString","coordinates":[[19.422324,50.136264],[19.422079,50.136494],[19.421697,50.136947],[19.421566,50.137052],[19.417976,50.138948],[19.416576,50.139761],[19.41569,50.140177],[19.414943,50.140456],[19.411663,50.141585]]}},{"type":"Feature","properties":{"mode":"bus","n":6,"arr":["17b","30","31","32a","32b","35"],"lines":"17b, 30, 31, 32a, 32b, 35"},"geometry":{"type":"LineString","coordinates":[[19.410481,50.127654],[19.409939,50.128433],[19.40954,50.129238],[19.408338,50.130617],[19.40825,50.13076],[19.408185,50.131002],[19.408237,50.131548],[19.40869,50.133558],[19.408878,50.134212]]}},{"type":"Feature","properties":{"mode":"bus","n":5,"arr":["17b","30","32a","32b","35"],"lines":"17b, 30, 32a, 32b, 35"},"geometry":{"type":"LineString","coordinates":[[19.408878,50.134212],[19.409076,50.134969],[19.409062,50.135269],[19.408975,50.135485],[19.408168,50.136495],[19.407785,50.13692],[19.406895,50.137652],[19.406788,50.138272],[19.406707,50.138414]]}},{"type":"Feature","properties":{"mode":"bus","n":5,"arr":["41","42","La","Lb","Lc"],"lines":"41, 42, La, Lb, Lc"},"geometry":{"type":"LineString","coordinates":[[19.460103,50.157499],[19.459947,50.157775],[19.459669,50.158144],[19.459432,50.158207]]}},{"type":"Feature","properties":{"mode":"bus","n":5,"arr":["41","42","La","Lb","Lc"],"lines":"41, 42, La, Lb, Lc"},"geometry":{"type":"LineString","coordinates":[[19.473296,50.173945],[19.473353,50.173943],[19.47347,50.173995]]}}]}